{"type":"FeatureCollection","metadata":{"title":"NJUST Jiangyin campus building footprints","source":"Overture Maps buildings theme","upstream":"East Asian Buildings (doi:10.5281/zenodo.8174931)","license":"ODbL-1.0","upstreamLicense":"CC-BY-4.0","filteredAt":"2026-08-30","filter":"Polygon intersects and representative point lies within OSM way 1314812014","retrievedAt":"2026-08-30","fixedExtent":{"west":120.14590,"east":120.16115,"north":31.90918,"south":31.90105,"width":2038,"height":1279,"crs":"EPSG:4326"}},"features":[{"type":"Feature","id":"0c8b3eb1-1580-4f12-af01-9adf3d6e6a5d","properties":{"sourceDataset":"doi:10.5281/zenodo.8174931","sourceVersion":"2024-11-01","isUnderground":false},"geometry":{"type":"Polygon","coordinates":[[[120.1595002,31.9059071],[120.1594967,31.9060114],[120.1592856,31.9060062],[120.1592891,31.905902],[120.1595002,31.9059071]]]}},{"type":"Feature","id":"abe07648-d4ff-48f0-af39-f9af6f25a571","properties":{"sourceDataset":"doi:10.5281/zenodo.8174931","sourceVersion":"2024-11-01","isUnderground":false},"geometry":{"type":"Polygon","coordinates":[[[120.1593459,31.9043971],[120.1593445,31.9044729],[120.1591,31.9044695],[120.1591015,31.9043937],[120.1593459,31.9043971]]]}},{"type":"Feature","id":"466778a9-c960-432b-a606-c05c0a47c3d1","properties":{"sourceDataset":"doi:10.5281/zenodo.8174931","sourceVersion":"2024-11-01","isUnderground":false},"geometry":{"type":"Polygon","coordinates":[[[120.1595185,31.9054108],[120.1595122,31.9055055],[120.1591793,31.9054895],[120.1591856,31.9053949],[120.1595185,31.9054108]]]}},{"type":"Feature","id":"3c51ffd0-4724-4134-8d0a-2c09a07e48dc","properties":{"sourceDataset":"doi:10.5281/zenodo.8174931","sourceVersion":"2024-11-01","isUnderground":false},"geometry":{"type":"Polygon","coordinates":[[[120.1551738,31.905214],[120.1552199,31.9052682],[120.1551563,31.9053076],[120.1551102,31.9052534],[120.1551738,31.905214]]]}},{"type":"Feature","id":"959b4b54-8d2d-428e-84cc-30b897491507","properties":{"sourceDataset":"doi:10.5281/zenodo.8174931","sourceVersion":"2024-11-01","isUnderground":false},"geometry":{"type":"Polygon","coordinates":[[[120.1554644,31.9050284],[120.1556041,31.9049012],[120.1556729,31.9049561],[120.1554151,31.905191],[120.155243,31.9050536],[120.1553289,31.9049753],[120.1553978,31.9050303],[120.15543,31.9050009],[120.1554644,31.9050284]]]}},{"type":"Feature","id":"84644bee-4ea0-41a6-8ce7-21d4d451c46a","properties":{"sourceDataset":"doi:10.5281/zenodo.8174931","sourceVersion":"2024-11-01","isUnderground":false},"geometry":{"type":"Polygon","coordinates":[[[120.1550126,31.9055416],[120.1549401,31.9054902],[120.1550406,31.9053871],[120.1551131,31.9054386],[120.1550126,31.9055416]]]}},{"type":"Feature","id":"f785c2b7-5647-4ec1-9437-21418ba8ba7e","properties":{"sourceDataset":"doi:10.5281/zenodo.8174931","sourceVersion":"2024-11-01","isUnderground":false},"geometry":{"type":"Polygon","coordinates":[[[120.1548756,31.9053429],[120.1549777,31.9053079],[120.1550188,31.905395],[120.1549167,31.90543],[120.1548756,31.9053429]]]}},{"type":"Feature","id":"3bd81570-64a3-438f-bd95-1d9254851821","properties":{"sourceDataset":"doi:10.5281/zenodo.8174931","sourceVersion":"2024-11-01","isUnderground":false},"geometry":{"type":"Polygon","coordinates":[[[120.1554683,31.9063794],[120.1552242,31.9063664],[120.1552339,31.9062339],[120.155478,31.9062469],[120.1554683,31.9063794]]]}},{"type":"Feature","id":"81178a7f-89b9-46ae-bc47-a8682461185e","properties":{"sourceDataset":"doi:10.5281/zenodo.8174931","sourceVersion":"2024-11-01","isUnderground":false},"geometry":{"type":"Polygon","coordinates":[[[120.1555408,31.9062481],[120.1558738,31.9062632],[120.1558573,31.9065283],[120.1555243,31.9065132],[120.1555408,31.9062481]]]}},{"type":"Feature","id":"c927220a-21a4-4f61-a509-b29597f141ab","properties":{"sourceDataset":"doi:10.5281/zenodo.8174931","sourceVersion":"2024-11-01","isUnderground":false},"geometry":{"type":"Polygon","coordinates":[[[120.15604,31.9066225],[120.1560449,31.9064898],[120.1562338,31.9064949],[120.1562289,31.9066276],[120.15604,31.9066225]]]}},{"type":"Feature","id":"1188b0d5-ccc5-4074-8c24-a134cd86903b","properties":{"sourceDataset":"doi:10.5281/zenodo.8174931","sourceVersion":"2024-11-01","isUnderground":false},"geometry":{"type":"Polygon","coordinates":[[[120.1565207,31.9064593],[120.156512,31.9065918],[120.1563566,31.9065843],[120.1563653,31.9064518],[120.1565207,31.9064593]]]}},{"type":"Feature","id":"699f80c4-5f04-44d4-b210-2704a2b2b703","properties":{"sourceDataset":"doi:10.5281/zenodo.8174931","sourceVersion":"2024-11-01","isUnderground":false},"geometry":{"type":"Polygon","coordinates":[[[120.1569463,31.9065797],[120.1569555,31.9065426],[120.1566946,31.9064953],[120.1567131,31.9064211],[120.1572349,31.9065158],[120.1572072,31.9066271],[120.1569463,31.9065797]]]}},{"type":"Feature","id":"71d22af3-4d88-4120-911e-2026db2226f1","properties":{"sourceDataset":"doi:10.5281/zenodo.8174931","sourceVersion":"2024-11-01","isUnderground":false},"geometry":{"type":"Polygon","coordinates":[[[120.1579756,31.9066224],[120.1579775,31.9065656],[120.1580219,31.9065666],[120.1580172,31.9067088],[120.1579616,31.9067074],[120.1579638,31.9066411],[120.1574639,31.9066289],[120.1574671,31.9065342],[120.1579559,31.9065461],[120.1579534,31.9066219],[120.1579756,31.9066224]]]}},{"type":"Feature","id":"56d04df7-a830-448b-99e0-8ee79a405cfb","properties":{"sourceDataset":"doi:10.5281/zenodo.8174931","sourceVersion":"2024-11-01","isUnderground":false},"geometry":{"type":"Polygon","coordinates":[[[120.1588283,31.906663],[120.1582286,31.9066422],[120.1582331,31.9065474],[120.1589772,31.9065733],[120.1589654,31.9068196],[120.158821,31.9068146],[120.1588283,31.906663]]]}},{"type":"Feature","id":"6b8dc28c-ab18-4eec-a401-32ef509dc4df","properties":{"sourceDataset":"doi:10.5281/zenodo.8174931","sourceVersion":"2024-11-01","isUnderground":false},"geometry":{"type":"Polygon","coordinates":[[[120.1582264,31.9067483],[120.158415,31.9067573],[120.1584057,31.9068993],[120.1589605,31.9069259],[120.1589537,31.9070301],[120.1582102,31.9069944],[120.1582264,31.9067483]]]}},{"type":"Feature","id":"3b840029-651b-46cd-99ef-7939b4d55552","properties":{"sourceDataset":"doi:10.5281/zenodo.8174931","sourceVersion":"2024-11-01","isUnderground":false},"geometry":{"type":"Polygon","coordinates":[[[120.1557614,31.9065833],[120.1557402,31.9069052],[120.1552075,31.9068796],[120.1552287,31.9065578],[120.1557614,31.9065833]]]}},{"type":"Feature","id":"3684193d-5d42-4f0a-83d8-8438ba768353","properties":{"sourceDataset":"doi:10.5281/zenodo.8174931","sourceVersion":"2024-11-01","isUnderground":false},"geometry":{"type":"Polygon","coordinates":[[[120.1541078,31.906607],[120.1541038,31.9069483],[120.1539704,31.9069471],[120.1539745,31.9066058],[120.1541078,31.906607]]]}},{"type":"Feature","id":"8ffa0254-1ba8-435e-a2ed-523d7878b54f","properties":{"sourceDataset":"doi:10.5281/zenodo.8174931","sourceVersion":"2024-11-01","isUnderground":false},"geometry":{"type":"Polygon","coordinates":[[[120.1545331,31.9061936],[120.1545811,31.9062175],[120.1545419,31.9062748],[120.1544939,31.9062509],[120.1545331,31.9061936]]]}},{"type":"Feature","id":"71d83bba-51f2-42a6-9e91-aa0f4dc12d0f","properties":{"sourceDataset":"doi:10.5281/zenodo.8174931","sourceVersion":"2024-11-01","isUnderground":false},"geometry":{"type":"Polygon","coordinates":[[[120.1529602,31.9064864],[120.1525942,31.9064669],[120.152599,31.9064007],[120.1527099,31.9064066],[120.1527231,31.9062268],[120.1527896,31.9062303],[120.1527903,31.9062209],[120.1524575,31.9062032],[120.15247,31.9060328],[120.1527584,31.9060482],[120.152755,31.9060955],[120.1528437,31.9061002],[120.1528354,31.9062138],[120.1529796,31.9062214],[120.1529602,31.9064864]]]}},{"type":"Feature","id":"aa9f2f0b-46da-4af6-969a-9c181e37200d","properties":{"sourceDataset":"doi:10.5281/zenodo.8174931","sourceVersion":"2024-11-01","isUnderground":false},"geometry":{"type":"Polygon","coordinates":[[[120.152225,31.9062641],[120.1522479,31.9063696],[120.1521397,31.9063867],[120.1521168,31.9062812],[120.152225,31.9062641]]]}},{"type":"Feature","id":"cb8a04b4-5937-491f-a27d-c1f37975863d","properties":{"sourceDataset":"doi:10.5281/zenodo.8174931","sourceVersion":"2024-11-01","isUnderground":false},"geometry":{"type":"Polygon","coordinates":[[[120.1523121,31.9063111],[120.1524229,31.9063036],[120.152429,31.9063697],[120.1523182,31.9063772],[120.1523121,31.9063111]]]}},{"type":"Feature","id":"971fb5f9-cd07-4296-a9ae-b02ab175fa9f","properties":{"sourceDataset":"doi:10.5281/zenodo.8174931","sourceVersion":"2024-11-01","isUnderground":false},"geometry":{"type":"Polygon","coordinates":[[[120.1508663,31.9057285],[120.1512663,31.9057372],[120.1512643,31.9058036],[120.1513532,31.9058055],[120.1513504,31.9059003],[120.1508615,31.9058897],[120.1508663,31.9057285]]]}},{"type":"Feature","id":"1ed27ab5-e37e-4a56-9f4e-7b14b5012b42","properties":{"sourceDataset":"doi:10.5281/zenodo.8174931","sourceVersion":"2024-11-01","isUnderground":false},"geometry":{"type":"Polygon","coordinates":[[[120.1510222,31.9066354],[120.150701,31.9066124],[120.1507103,31.9065179],[120.1510315,31.9065409],[120.1510222,31.9066354]]]}},{"type":"Feature","id":"a564b693-6c75-423b-9d55-44b2c25cba43","properties":{"sourceDataset":"doi:10.5281/zenodo.8174931","sourceVersion":"2024-11-01","isUnderground":false},"geometry":{"type":"Polygon","coordinates":[[[120.1524691,31.9067787],[120.1526803,31.9067816],[120.1526814,31.9067248],[120.1524147,31.906721],[120.1524156,31.9066736],[120.1524489,31.9066741],[120.1524502,31.9066078],[120.1522946,31.9066056],[120.1522957,31.9065487],[120.1529513,31.9065578],[120.1529416,31.9070697],[120.1526304,31.9070654],[120.152629,31.9071413],[120.1520733,31.9071335],[120.1520769,31.9069439],[120.1524659,31.9069493],[120.152467,31.9068925],[120.1526226,31.9068946],[120.1526231,31.9068662],[120.1525786,31.9068656],[120.1525795,31.9068182],[120.1525129,31.9068172],[120.1525118,31.9068741],[120.1524673,31.9068735],[120.1524691,31.9067787]]]}},{"type":"Feature","id":"b7a7edf9-cb2a-423c-8f1d-f0e11e75b370","properties":{"sourceDataset":"doi:10.5281/zenodo.8174931","sourceVersion":"2024-11-01","isUnderground":false},"geometry":{"type":"Polygon","coordinates":[[[120.1518412,31.9069403],[120.1518462,31.9071868],[120.1513573,31.9071941],[120.1513522,31.9069476],[120.1518412,31.9069403]]]}},{"type":"Feature","id":"85a35f7e-42dd-4dfe-ad87-a9440ba43777","properties":{"sourceDataset":"doi:10.5281/zenodo.8174931","sourceVersion":"2024-11-01","isUnderground":false},"geometry":{"type":"Polygon","coordinates":[[[120.150152,31.9068698],[120.1509742,31.9068877],[120.1509714,31.9069825],[120.1501491,31.9069646],[120.150152,31.9068698]]]}},{"type":"Feature","id":"4e3d4fdd-492f-4efd-b18a-6eabc7eefff2","properties":{"sourceDataset":"doi:10.5281/zenodo.8174931","sourceVersion":"2024-11-01","isUnderground":false},"geometry":{"type":"Polygon","coordinates":[[[120.1501698,31.9061658],[120.150169,31.9063269],[120.1500801,31.9063266],[120.1500809,31.9061655],[120.1501698,31.9061658]]]}},{"type":"Feature","id":"32bf15a7-e7bf-4535-8f7d-edb93a2ad82e","properties":{"sourceDataset":"doi:10.5281/zenodo.8174931","sourceVersion":"2024-11-01","isUnderground":false},"geometry":{"type":"Polygon","coordinates":[[[120.1506672,31.906533],[120.1506545,31.9066272],[120.1502239,31.906585],[120.1502366,31.9064908],[120.1506672,31.906533]]]}},{"type":"Feature","id":"4cf740c5-4031-4ca4-8218-869a2c1187a7","properties":{"sourceDataset":"doi:10.5281/zenodo.8174931","sourceVersion":"2024-11-01","isUnderground":false},"geometry":{"type":"Polygon","coordinates":[[[120.1510042,31.9062597],[120.1502382,31.9062269],[120.1502438,31.9061322],[120.1510097,31.906165],[120.1510042,31.9062597]]]}},{"type":"Feature","id":"2092eef4-72c9-47fa-9387-647be033eac5","properties":{"sourceDataset":"doi:10.5281/zenodo.8174931","sourceVersion":"2024-11-01","isUnderground":false},"geometry":{"type":"Polygon","coordinates":[[[120.1496455,31.9058333],[120.1485581,31.9057783],[120.1485568,31.9057972],[120.1488564,31.9058124],[120.1488524,31.9058692],[120.1484308,31.9058478],[120.1484361,31.9057721],[120.1483252,31.9057665],[120.148341,31.9055393],[120.1486738,31.9055562],[120.1486797,31.905471],[120.1494564,31.9055103],[120.1494538,31.9055482],[120.1496646,31.9055589],[120.1496455,31.9058333]]]}},{"type":"Feature","id":"645ee4d2-47c6-4c83-8780-407b2cf073bf","properties":{"sourceDataset":"doi:10.5281/zenodo.8174931","sourceVersion":"2024-11-01","isUnderground":false},"geometry":{"type":"Polygon","coordinates":[[[120.1474847,31.9040379],[120.1476625,31.9040431],[120.1476501,31.9043464],[120.1474724,31.9043411],[120.1474847,31.9040379]]]}},{"type":"Feature","id":"77918e25-f5a7-4a5a-b483-d9c8d1cef943","properties":{"sourceDataset":"doi:10.5281/zenodo.8174931","sourceVersion":"2024-11-01","isUnderground":false},"geometry":{"type":"Polygon","coordinates":[[[120.1477221,31.9042563],[120.1481444,31.9042622],[120.1481426,31.904357],[120.1477203,31.9043511],[120.1477221,31.9042563]]]}},{"type":"Feature","id":"6a0546ad-d8d2-4041-99c3-993cff8d1587","properties":{"sourceDataset":"doi:10.5281/zenodo.8174931","sourceVersion":"2024-11-01","isUnderground":false},"geometry":{"type":"Polygon","coordinates":[[[120.1502488,31.9042577],[120.1502885,31.9039466],[120.1504873,31.9039651],[120.1504477,31.9042761],[120.1502488,31.9042577]]]}},{"type":"Feature","id":"21c92d6d-6bbb-4aa4-9e91-9c3302221dc6","properties":{"sourceDataset":"doi:10.5281/zenodo.8174931","sourceVersion":"2024-11-01","isUnderground":false},"geometry":{"type":"Polygon","coordinates":[[[120.1509917,31.9043038],[120.1505374,31.9042725],[120.1505554,31.9040835],[120.1510096,31.9041148],[120.1509917,31.9043038]]]}},{"type":"Feature","id":"43acd53f-21fe-46fb-9f34-bf0ac9375c22","properties":{"sourceDataset":"doi:10.5281/zenodo.8174931","sourceVersion":"2024-11-01","isUnderground":false},"geometry":{"type":"Polygon","coordinates":[[[120.1532665,31.9050188],[120.1532658,31.9050662],[120.1534214,31.9050679],[120.1534221,31.9050205],[120.1535999,31.9050226],[120.1535977,31.9051648],[120.1529309,31.9051572],[120.1529331,31.905015],[120.1532665,31.9050188]]]}},{"type":"Feature","id":"bea519fe-52d6-4d30-b7fa-9bcd080ab048","properties":{"sourceDataset":"doi:10.5281/zenodo.8174931","sourceVersion":"2024-11-01","isUnderground":false},"geometry":{"type":"Polygon","coordinates":[[[120.1537545,31.9032661],[120.153599,31.9032607],[120.1536267,31.9026829],[120.1537821,31.9026883],[120.1537545,31.9032661]]]}},{"type":"Feature","id":"abab728b-b77d-4549-90c1-ee973453024d","properties":{"sourceDataset":"doi:10.5281/zenodo.8174931","sourceVersion":"2024-11-01","isUnderground":false},"geometry":{"type":"Polygon","coordinates":[[[120.1541009,31.9028708],[120.1541052,31.9027286],[120.1546607,31.9027407],[120.1546565,31.9028829],[120.1541009,31.9028708]]]}},{"type":"Feature","id":"386bfba1-2953-418c-8039-a3f130eff25d","properties":{"sourceDataset":"doi:10.5281/zenodo.8174931","sourceVersion":"2024-11-01","isUnderground":false},"geometry":{"type":"Polygon","coordinates":[[[120.1522982,31.903031],[120.152387,31.9030348],[120.1523776,31.9031958],[120.1520557,31.903182],[120.1520696,31.9029453],[120.1523027,31.9029553],[120.1522982,31.903031]]]}},{"type":"Feature","id":"d1ad3bbf-6c1b-4df3-9d43-022e7cc26d16","properties":{"sourceDataset":"doi:10.5281/zenodo.8174931","sourceVersion":"2024-11-01","isUnderground":false},"geometry":{"type":"Polygon","coordinates":[[[120.1529199,31.9028292],[120.1524753,31.9028254],[120.152476,31.9027685],[120.1524204,31.902768],[120.1524199,31.9028154],[120.1520309,31.902812],[120.1520325,31.9026793],[120.1530883,31.9026885],[120.153082,31.9032194],[120.1524707,31.9032141],[120.1524727,31.9030434],[120.1529173,31.9030473],[120.1529199,31.9028292]]]}},{"type":"Feature","id":"53842f71-6c54-42ab-8a66-e038f0c61b4b","properties":{"sourceDataset":"doi:10.5281/zenodo.8174931","sourceVersion":"2024-11-01","isUnderground":false},"geometry":{"type":"Polygon","coordinates":[[[120.1524734,31.9023919],[120.1525197,31.9023842],[120.1525317,31.9024368],[120.15247,31.9024471],[120.152461,31.9024076],[120.152245,31.9024435],[120.1522179,31.902325],[120.1524494,31.9022866],[120.1524734,31.9023919]]]}},{"type":"Feature","id":"771d4538-5ad1-413f-b873-f3d2a07a4bae","properties":{"sourceDataset":"doi:10.5281/zenodo.8174931","sourceVersion":"2024-11-01","isUnderground":false},"geometry":{"type":"Polygon","coordinates":[[[120.1512903,31.9026898],[120.1512877,31.9028035],[120.1506987,31.9027938],[120.1507013,31.90268],[120.1512903,31.9026898]]]}},{"type":"Feature","id":"1466d60f-276c-4942-9bd7-a7a6211b74a0","properties":{"sourceDataset":"doi:10.5281/zenodo.8174931","sourceVersion":"2024-11-01","isUnderground":false},"geometry":{"type":"Polygon","coordinates":[[[120.1511551,31.9029996],[120.1514885,31.9029999],[120.1514882,31.9032844],[120.1511547,31.9032841],[120.1511551,31.9029996]]]}},{"type":"Feature","id":"ff9c9eac-fb07-4b36-8795-145bf736dd51","properties":{"sourceDataset":"doi:10.5281/zenodo.8174931","sourceVersion":"2024-11-01","isUnderground":false},"geometry":{"type":"Polygon","coordinates":[[[120.1504018,31.9030345],[120.1510234,31.9030627],[120.151011,31.9032615],[120.1503894,31.9032333],[120.1504018,31.9030345]]]}},{"type":"Feature","id":"fe1f4f88-91c7-4766-847d-bbeaf87d6996","properties":{"sourceDataset":"doi:10.5281/zenodo.8174931","sourceVersion":"2024-11-01","isUnderground":false},"geometry":{"type":"Polygon","coordinates":[[[120.1511778,31.903413],[120.1511784,31.9033371],[120.1513674,31.9033383],[120.1513667,31.9034141],[120.1511778,31.903413]]]}},{"type":"Feature","id":"36921a17-b495-4347-ba54-5dcaab1374b9","properties":{"sourceDataset":"doi:10.5281/zenodo.8174931","sourceVersion":"2024-11-01","isUnderground":false},"geometry":{"type":"Polygon","coordinates":[[[120.15265,31.903506],[120.1526615,31.9037239],[120.1524728,31.9037311],[120.1524663,31.903608],[120.1523553,31.9036123],[120.1523502,31.9035176],[120.15265,31.903506]]]}},{"type":"Feature","id":"3c192e3a-6d81-4be1-a245-975b58a3c00f","properties":{"sourceDataset":"doi:10.5281/zenodo.8174931","sourceVersion":"2024-11-01","isUnderground":false},"geometry":{"type":"Polygon","coordinates":[[[120.1521488,31.9038617],[120.1521391,31.9040511],[120.1514174,31.9040241],[120.1514271,31.9038346],[120.1521488,31.9038617]]]}},{"type":"Feature","id":"f9c3c542-1f9d-4047-8e52-77259c5556e4","properties":{"sourceDataset":"doi:10.5281/zenodo.8174931","sourceVersion":"2024-11-01","isUnderground":false},"geometry":{"type":"Polygon","coordinates":[[[120.1510685,31.9039308],[120.1508465,31.9039202],[120.1508565,31.9037687],[120.1503683,31.9037453],[120.1503814,31.9035465],[120.1510916,31.9035806],[120.1510685,31.9039308]]]}},{"type":"Feature","id":"847578cd-830a-4f5e-b3ee-1a553048fa7c","properties":{"sourceDataset":"doi:10.5281/zenodo.8174931","sourceVersion":"2024-11-01","isUnderground":false},"geometry":{"type":"Polygon","coordinates":[[[120.1478724,31.9040007],[120.1477947,31.9039984],[120.1478055,31.903733],[120.1478388,31.903734],[120.1478377,31.9037625],[120.1479265,31.9037651],[120.1479315,31.9036419],[120.1477649,31.903637],[120.1477688,31.9035422],[120.1482131,31.9035554],[120.1481942,31.9040197],[120.1479165,31.9040115],[120.1479203,31.9039167],[120.1478759,31.9039154],[120.1478724,31.9040007]]]}},{"type":"Feature","id":"ff894474-5490-4964-97a1-a9519ae0e43b","properties":{"sourceDataset":"doi:10.5281/zenodo.8174931","sourceVersion":"2024-11-01","isUnderground":false},"geometry":{"type":"Polygon","coordinates":[[[120.1476888,31.9039505],[120.1476771,31.9039871],[120.1475806,31.9039645],[120.1475924,31.903928],[120.1476888,31.9039505]]]}},{"type":"Feature","id":"36e7a6e9-e85a-4231-ba35-a06c6613144c","properties":{"sourceDataset":"doi:10.5281/zenodo.8174931","sourceVersion":"2024-11-01","isUnderground":false},"geometry":{"type":"Polygon","coordinates":[[[120.1482429,31.9028736],[120.1483314,31.9028809],[120.1483186,31.9029941],[120.1482301,31.9029868],[120.1482429,31.9028736]]]}},{"type":"Feature","id":"0333a423-63f5-4a1d-a8ba-fde9aa2847e5","properties":{"sourceDataset":"doi:10.5281/zenodo.8174931","sourceVersion":"2024-11-01","isUnderground":false},"geometry":{"type":"Polygon","coordinates":[[[120.1479698,31.9028771],[120.1481254,31.9028809],[120.1481228,31.9029567],[120.1479673,31.9029529],[120.1479698,31.9028771]]]}},{"type":"Feature","id":"293cee35-ed53-43f3-8dd1-1ed89b27c448","properties":{"sourceDataset":"doi:10.5281/zenodo.8174931","sourceVersion":"2024-11-01","isUnderground":false},"geometry":{"type":"Polygon","coordinates":[[[120.1477792,31.9028538],[120.1478118,31.9028997],[120.1476639,31.9029762],[120.1476313,31.9029303],[120.1477792,31.9028538]]]}},{"type":"Feature","id":"5148a63b-8b4b-4091-8966-e93bab7f9c92","properties":{"sourceDataset":"doi:10.5281/zenodo.8174931","sourceVersion":"2024-11-01","isUnderground":false},"geometry":{"type":"Polygon","coordinates":[[[120.1481413,31.9023554],[120.1480865,31.9023473],[120.1480902,31.9023287],[120.148145,31.9023367],[120.1481413,31.9023554]]]}},{"type":"Feature","id":"cd16fc21-65cd-4662-bf01-626b8b20a7a6","properties":{"sourceDataset":"doi:10.5281/zenodo.8174931","sourceVersion":"2024-11-01","isUnderground":false},"geometry":{"type":"Polygon","coordinates":[[[120.1482556,31.9024862],[120.1482598,31.9024104],[120.1483486,31.902414],[120.1483387,31.9025939],[120.1475838,31.9025636],[120.1476005,31.9022606],[120.1477448,31.9022663],[120.1477338,31.9024652],[120.1482556,31.9024862]]]}},{"type":"Feature","id":"3847759c-ae63-4dc9-96ad-ba66422f0d8e","properties":{"sourceDataset":"doi:10.5281/zenodo.8174931","sourceVersion":"2024-11-01","isUnderground":false},"geometry":{"type":"Polygon","coordinates":[[[120.1487731,31.902468],[120.1486178,31.9024601],[120.148631,31.9022708],[120.1487863,31.9022787],[120.1487731,31.902468]]]}},{"type":"Feature","id":"ab74395a-7bb0-4f00-a60b-71fb4c2de5e4","properties":{"sourceDataset":"doi:10.5281/zenodo.8174931","sourceVersion":"2024-11-01","isUnderground":false},"geometry":{"type":"Polygon","coordinates":[[[120.1491938,31.9023611],[120.149305,31.9023615],[120.1493037,31.9026175],[120.1488481,31.9026159],[120.1488485,31.9025305],[120.149193,31.9025317],[120.1491938,31.9023611]]]}},{"type":"Feature","id":"89f47aa7-4c27-422d-b8ba-79bb27f9b4ba","properties":{"sourceDataset":"doi:10.5281/zenodo.8174931","sourceVersion":"2024-11-01","isUnderground":false},"geometry":{"type":"Polygon","coordinates":[[[120.1487764,31.9026175],[120.1487779,31.9025416],[120.1488001,31.9025419],[120.1487986,31.9026178],[120.1487764,31.9026175]]]}},{"type":"Feature","id":"63711e1f-c28d-44bc-a0ee-7e45e61cf4c1","properties":{"sourceDataset":"doi:10.5281/zenodo.8174931","sourceVersion":"2024-11-01","isUnderground":false},"geometry":{"type":"Polygon","coordinates":[[[120.1498471,31.9029745],[120.1499249,31.902973],[120.149933,31.9032668],[120.1497219,31.903271],[120.1497122,31.9029203],[120.1498455,31.9029176],[120.1498471,31.9029745]]]}},{"type":"Feature","id":"61882a6f-c2ef-4a86-98af-9f50bbd1cafe","properties":{"sourceDataset":"doi:10.5281/zenodo.8174931","sourceVersion":"2024-11-01","isUnderground":false},"geometry":{"type":"Polygon","coordinates":[[[120.1506201,31.9026817],[120.1506184,31.9027955],[120.1503294,31.9027922],[120.1503312,31.9026784],[120.1506201,31.9026817]]]}},{"type":"Feature","id":"f895a5ab-68ba-43d4-8727-b7c87e105374","properties":{"sourceDataset":"doi:10.5281/zenodo.8174931","sourceVersion":"2024-11-01","isUnderground":false},"geometry":{"type":"Polygon","coordinates":[[[120.1483119,31.9022356],[120.1477239,31.9022059],[120.1477305,31.9021112],[120.1483185,31.902141],[120.1483119,31.9022356]]]}},{"type":"Feature","id":"06018b00-a544-49ef-aa73-bd6505a2c727","properties":{"sourceDataset":"doi:10.5281/zenodo.8174931","sourceVersion":"2024-11-01","isUnderground":false},"geometry":{"type":"Polygon","coordinates":[[[120.1511873,31.9022379],[120.1511981,31.9023704],[120.1508212,31.9023928],[120.1508104,31.9022604],[120.1511873,31.9022379]]]}},{"type":"Feature","id":"27656656-da5f-4608-9b50-f6cda307d599","properties":{"sourceDataset":"doi:10.5281/zenodo.8174931","sourceVersion":"2024-11-01","isUnderground":false},"geometry":{"type":"Polygon","coordinates":[[[120.156701,31.9025865],[120.1563121,31.902577],[120.1563147,31.9025012],[120.1567035,31.9025106],[120.156701,31.9025865]]]}},{"type":"Feature","id":"3b49633e-0779-427a-ad36-3a755cbe48a1","properties":{"sourceDataset":"doi:10.5281/zenodo.8174931","sourceVersion":"2024-11-01","isUnderground":false},"geometry":{"type":"Polygon","coordinates":[[[120.1566767,31.9027234],[120.1563101,31.9027135],[120.1563115,31.9026756],[120.1566781,31.9026855],[120.1566767,31.9027234]]]}},{"type":"Feature","id":"b10ec6f1-2b56-45ab-b0e7-786b6f2cb20d","properties":{"sourceDataset":"doi:10.5281/zenodo.8174931","sourceVersion":"2024-11-01","isUnderground":false},"geometry":{"type":"Polygon","coordinates":[[[120.1566803,31.9027451],[120.1566786,31.9028209],[120.1563008,31.9028147],[120.1563025,31.9027388],[120.1566803,31.9027451]]]}},{"type":"Feature","id":"8a8c1b0b-52f2-44cd-acf0-f9f931cbc6bc","properties":{"sourceDataset":"doi:10.5281/zenodo.8174931","sourceVersion":"2024-11-01","isUnderground":false},"geometry":{"type":"Polygon","coordinates":[[[120.1562834,31.9029579],[120.1562848,31.902882],[120.1566626,31.9028873],[120.1566612,31.9029631],[120.1562834,31.9029579]]]}},{"type":"Feature","id":"216c4956-a983-4012-816d-67ee70e9f4c1","properties":{"sourceDataset":"doi:10.5281/zenodo.8174931","sourceVersion":"2024-11-01","isUnderground":false},"geometry":{"type":"Polygon","coordinates":[[[120.1566545,31.9030608],[120.1562878,31.9030538],[120.1562898,31.902978],[120.1566565,31.902985],[120.1566545,31.9030608]]]}},{"type":"Feature","id":"8eaf65d4-397c-40ec-bff3-530a1ce8b05c","properties":{"sourceDataset":"doi:10.5281/zenodo.8174931","sourceVersion":"2024-11-01","isUnderground":false},"geometry":{"type":"Polygon","coordinates":[[[120.1566519,31.9032066],[120.1562741,31.9031994],[120.1562761,31.9031235],[120.1566539,31.9031307],[120.1566519,31.9032066]]]}},{"type":"Feature","id":"06c4a60a-79a7-4578-bd78-20bc433019e0","properties":{"sourceDataset":"doi:10.5281/zenodo.8174931","sourceVersion":"2024-11-01","isUnderground":false},"geometry":{"type":"Polygon","coordinates":[[[120.1561734,31.9032169],[120.156172,31.9029798],[120.1562053,31.9029797],[120.1562068,31.9032167],[120.1561734,31.9032169]]]}},{"type":"Feature","id":"da7b4860-25e4-4280-acba-986d994f1e4f","properties":{"sourceDataset":"doi:10.5281/zenodo.8174931","sourceVersion":"2024-11-01","isUnderground":false},"geometry":{"type":"Polygon","coordinates":[[[120.1562834,31.9032972],[120.1562865,31.9032214],[120.1566419,31.9032319],[120.1566389,31.9033077],[120.1562834,31.9032972]]]}},{"type":"Feature","id":"81bda1a9-236a-4681-b5b9-962657a949be","properties":{"sourceDataset":"doi:10.5281/zenodo.8174931","sourceVersion":"2024-11-01","isUnderground":false},"geometry":{"type":"Polygon","coordinates":[[[120.1567238,31.9033091],[120.1567263,31.9032332],[120.1570929,31.9032422],[120.1570904,31.903318],[120.1567238,31.9033091]]]}},{"type":"Feature","id":"2fb6a514-bac4-4bb5-9e45-f9a779b0f96c","properties":{"sourceDataset":"doi:10.5281/zenodo.8174931","sourceVersion":"2024-11-01","isUnderground":false},"geometry":{"type":"Polygon","coordinates":[[[120.1567251,31.9031374],[120.1570918,31.9031444],[120.1570898,31.9032203],[120.1567231,31.9032133],[120.1567251,31.9031374]]]}},{"type":"Feature","id":"e3b57293-d773-41a5-9a9d-cb08d1261aa3","properties":{"sourceDataset":"doi:10.5281/zenodo.8174931","sourceVersion":"2024-11-01","isUnderground":false},"geometry":{"type":"Polygon","coordinates":[[[120.1571908,31.9031485],[120.1575683,31.9031627],[120.1575644,31.9032384],[120.1571869,31.9032243],[120.1571908,31.9031485]]]}},{"type":"Feature","id":"64df3732-b801-4976-afce-24ad32279065","properties":{"sourceDataset":"doi:10.5281/zenodo.8174931","sourceVersion":"2024-11-01","isUnderground":false},"geometry":{"type":"Polygon","coordinates":[[[120.1575609,31.9033358],[120.1571833,31.9033226],[120.1571869,31.9032468],[120.1575645,31.90326],[120.1575609,31.9033358]]]}},{"type":"Feature","id":"281da966-17d0-4659-b021-e80f74e8750b","properties":{"sourceDataset":"doi:10.5281/zenodo.8174931","sourceVersion":"2024-11-01","isUnderground":false},"geometry":{"type":"Polygon","coordinates":[[[120.1576355,31.9033394],[120.1576383,31.9032636],[120.1579604,31.9032723],[120.1579576,31.9033481],[120.1576355,31.9033394]]]}},{"type":"Feature","id":"bc38eeb2-78b4-4cde-aa94-d17682d55e5b","properties":{"sourceDataset":"doi:10.5281/zenodo.8174931","sourceVersion":"2024-11-01","isUnderground":false},"geometry":{"type":"Polygon","coordinates":[[[120.1576303,31.9032381],[120.1576342,31.9031623],[120.1579562,31.9031744],[120.1579523,31.9032502],[120.1576303,31.9032381]]]}},{"type":"Feature","id":"f176c1a4-849d-483b-a2f5-36ad790ffc78","properties":{"sourceDataset":"doi:10.5281/zenodo.8174931","sourceVersion":"2024-11-01","isUnderground":false},"geometry":{"type":"Polygon","coordinates":[[[120.1581906,31.9029939],[120.1581717,31.9033159],[120.1581273,31.903314],[120.1581462,31.902992],[120.1581906,31.9029939]]]}},{"type":"Feature","id":"1671289c-82cf-4cc1-b48e-ff8581e2af68","properties":{"sourceDataset":"doi:10.5281/zenodo.8174931","sourceVersion":"2024-11-01","isUnderground":false},"geometry":{"type":"Polygon","coordinates":[[[120.1576464,31.9028512],[120.1576503,31.9027754],[120.1579501,31.9027866],[120.1579462,31.9028624],[120.1576464,31.9028512]]]}},{"type":"Feature","id":"cf19623f-2eb3-40eb-92d4-c8ce3411639a","properties":{"sourceDataset":"doi:10.5281/zenodo.8174931","sourceVersion":"2024-11-01","isUnderground":false},"geometry":{"type":"Polygon","coordinates":[[[120.1576476,31.902997],[120.1576504,31.9029212],[120.1579503,31.9029293],[120.1579475,31.9030051],[120.1576476,31.902997]]]}},{"type":"Feature","id":"dbf36c05-3156-4a2f-abe9-aebb2015fc62","properties":{"sourceDataset":"doi:10.5281/zenodo.8174931","sourceVersion":"2024-11-01","isUnderground":false},"geometry":{"type":"Polygon","coordinates":[[[120.1576443,31.9030911],[120.1576476,31.9030153],[120.1579586,31.9030253],[120.1579553,31.9031011],[120.1576443,31.9030911]]]}},{"type":"Feature","id":"ae3821be-6b02-46e6-ba57-740449e999d6","properties":{"sourceDataset":"doi:10.5281/zenodo.8174931","sourceVersion":"2024-11-01","isUnderground":false},"geometry":{"type":"Polygon","coordinates":[[[120.1567601,31.9028976],[120.15756,31.9029149],[120.1575561,31.9030476],[120.1567561,31.9030302],[120.1567601,31.9028976]]]}},{"type":"Feature","id":"5fde02e9-8c2b-4206-bbe9-c40dc12e5d56","properties":{"sourceDataset":"doi:10.5281/zenodo.8174931","sourceVersion":"2024-11-01","isUnderground":false},"geometry":{"type":"Polygon","coordinates":[[[120.1567569,31.9027481],[120.1570791,31.902756],[120.1570765,31.9028318],[120.1567544,31.9028239],[120.1567569,31.9027481]]]}},{"type":"Feature","id":"83f1b861-ddba-4668-9cbb-395e30fab349","properties":{"sourceDataset":"doi:10.5281/zenodo.8174931","sourceVersion":"2024-11-01","isUnderground":false},"geometry":{"type":"Polygon","coordinates":[[[120.1573005,31.9027604],[120.1575894,31.9027652],[120.1575877,31.902841],[120.1572432,31.9028354],[120.1572469,31.9026742],[120.1575913,31.9026799],[120.1575898,31.9027463],[120.1573009,31.9027415],[120.1573005,31.9027604]]]}},{"type":"Feature","id":"41b135fa-8ba5-461d-8cdb-dcd596a55703","properties":{"sourceDataset":"doi:10.5281/zenodo.8174931","sourceVersion":"2024-11-01","isUnderground":false},"geometry":{"type":"Polygon","coordinates":[[[120.1570796,31.9026783],[120.1570791,31.9027352],[120.1567457,31.9027332],[120.1567462,31.9026763],[120.1570796,31.9026783]]]}},{"type":"Feature","id":"f801abef-ca87-406b-b820-0fe02487534e","properties":{"sourceDataset":"doi:10.5281/zenodo.8174931","sourceVersion":"2024-11-01","isUnderground":false},"geometry":{"type":"Polygon","coordinates":[[[120.156746,31.9025226],[120.1570683,31.902527],[120.1570672,31.9025839],[120.1567449,31.9025795],[120.156746,31.9025226]]]}},{"type":"Feature","id":"2e22398f-8039-469e-ae9d-1111d2cc9b75","properties":{"sourceDataset":"doi:10.5281/zenodo.8174931","sourceVersion":"2024-11-01","isUnderground":false},"geometry":{"type":"Polygon","coordinates":[[[120.1579534,31.9027625],[120.1576535,31.9027552],[120.157656,31.9026794],[120.1579559,31.9026867],[120.1579534,31.9027625]]]}}]}
