{"type":"FeatureCollection","metadata":{"title":"NJUST Jiangyin campus boundary","source":"OpenStreetMap way 1314812014","license":"ODbL-1.0","retrievedAt":"2026-08-30","fixedExtent":{"west":120.14590,"east":120.16115,"north":31.90918,"south":31.90105,"width":2038,"height":1279,"crs":"EPSG:4326"}},"features":[{"type":"Feature","id":"openstreetmap:way/1314812014","properties":{"osmType":"way","osmId":1314812014,"version":1,"changeset":156473793,"timestamp":"2024-09-11T09:25:20Z","amenity":"university","name":"南京理工大学江阴校区","sourceImagery":"Esri World Imagery"},"geometry":{"type":"Polygon","coordinates":[[[120.1545162,31.9020539],[120.1594788,31.9021816],[120.159747,31.9044557],[120.1597787,31.9072744],[120.1563404,31.9071704],[120.1548971,31.9072062],[120.1525343,31.907391],[120.1499887,31.9078228],[120.1484392,31.908149],[120.1483319,31.907831],[120.147266,31.9080277],[120.1471141,31.9080557],[120.1470269,31.9073008],[120.1470172,31.9059289],[120.1470686,31.9051137],[120.1472266,31.9047912],[120.1472345,31.9044144],[120.1471667,31.9042443],[120.1475568,31.9018262],[120.1482881,31.9018466],[120.1486178,31.9018386],[120.1517195,31.9019374],[120.1529749,31.9020085],[120.153119,31.9021428],[120.1543236,31.9021776],[120.1545162,31.9020539]]]}}]}
